[
    {
        "Altitude(m)": 559159.3635644045,
        "Argument of Periapsis(deg)": 0.013245982221427002,
        "Eccentricity": 0.0,
        "Inclination(deg)": 53.0,
        "Latitude(deg)": 49.91515637563234,
        "Longitude(deg)": -3.646217038792741,
        "Mean Anomaly(deg)": 72.91048573515516,
        "RAAN(deg)": 34.98028673705603,
        "Satellite Name": "Starlink Shell 1 157",
        "Satellite Number": 157,
        "Semi-Major Axis(m)": 6931778.249405717,
        "Time(s)": 380
    },
    {
        "Altitude(m)": 559210.8566483218,
        "Argument of Periapsis(deg)": 0.013594560700938237,
        "Eccentricity": 0.0,
        "Inclination(deg)": 53.0,
        "Latitude(deg)": 50.13960022822236,
        "Longitude(deg)": -2.778727254190332,
        "Mean Anomaly(deg)": 73.53731693871188,
        "RAAN(deg)": 34.97976796697856,
        "Satellite Name": "Starlink Shell 1 157",
        "Satellite Number": 157,
        "Semi-Major Axis(m)": 6931778.249405717,
        "Time(s)": 390
    },
    {
        "Altitude(m)": 559260.695919929,
        "Argument of Periapsis(deg)": 0.013943139180449475,
        "Eccentricity": 0.0,
        "Inclination(deg)": 53.0,
        "Latitude(deg)": 50.3568613002574,
        "Longitude(deg)": -1.9028385775406749,
        "Mean Anomaly(deg)": 74.1641481422686,
        "RAAN(deg)": 34.97924919690109,
        "Satellite Name": "Starlink Shell 1 157",
        "Satellite Number": 157,
        "Semi-Major Axis(m)": 6931778.249405717,
        "Time(s)": 400
    },
    {
        "Altitude(m)": 559308.8511371026,
        "Argument of Periapsis(deg)": 0.014291717659960712,
        "Eccentricity": 0.0,
        "Inclination(deg)": 53.0,
        "Latitude(deg)": 50.56681910364937,
        "Longitude(deg)": -1.0186882871334175,
        "Mean Anomaly(deg)": 74.79097934582533,
        "RAAN(deg)": 34.97873042682362,
        "Satellite Name": "Starlink Shell 1 157",
        "Satellite Number": 157,
        "Semi-Major Axis(m)": 6931778.249405717,
        "Time(s)": 410
    },
    {
        "Altitude(m)": 559355.2931104786,
        "Argument of Periapsis(deg)": 0.014640296139471948,
        "Eccentricity": 0.0,
        "Inclination(deg)": 53.0,
        "Latitude(deg)": 50.769354691651756,
        "Longitude(deg)": -0.1264299204584886,
        "Mean Anomaly(deg)": 75.41781054938203,
        "RAAN(deg)": 34.97821165674614,
        "Satellite Name": "Starlink Shell 1 157",
        "Satellite Number": 157,
        "Semi-Major Axis(m)": 6931778.249405717,
        "Time(s)": 420
    },
    {
        "Altitude(m)": 559399.9937177969,
        "Argument of Periapsis(deg)": 0.014988874618983185,
        "Eccentricity": 0.0,
        "Inclination(deg)": 53.0,
        "Latitude(deg)": 50.964350922567384,
        "Longitude(deg)": 0.7737669690979937,
        "Mean Anomaly(deg)": 76.04464175293874,
        "RAAN(deg)": 34.97769288666867,
        "Satellite Name": "Starlink Shell 1 157",
        "Satellite Number": 157,
        "Semi-Major Axis(m)": 6931778.249405717,
        "Time(s)": 430
    },
    {
        "Altitude(m)": 559442.9259176716,
        "Argument of Periapsis(deg)": 0.015337453098494424,
        "Eccentricity": 0.0,
        "Inclination(deg)": 53.0,
        "Latitude(deg)": 51.15169273034763,
        "Longitude(deg)": 1.6817171123982455,
        "Mean Anomaly(deg)": 76.67147295649545,
        "RAAN(deg)": 34.9771741165912,
        "Satellite Name": "Starlink Shell 1 157",
        "Satellite Number": 157,
        "Semi-Major Axis(m)": 6931778.249405717,
        "Time(s)": 440
    },
    {
        "Altitude(m)": 559484.0637628473,
        "Argument of Periapsis(deg)": 0.01568603157800566,
        "Eccentricity": 0.0,
        "Inclination(deg)": 53.0,
        "Latitude(deg)": 51.33126740102714,
        "Longitude(deg)": 2.5972183736714,
        "Mean Anomaly(deg)": 77.2983041600522,
        "RAAN(deg)": 34.976655346513716,
        "Satellite Name": "Starlink Shell 1 157",
        "Satellite Number": 157,
        "Semi-Major Axis(m)": 6931778.249405717,
        "Time(s)": 450
    },
    {
        "Altitude(m)": 559523.3824128975,
        "Argument of Periapsis(deg)": 0.0160346100575169,
        "Eccentricity": 0.0,
        "Inclination(deg)": 53.0,
        "Latitude(deg)": 51.50296485383051,
        "Longitude(deg)": 3.520052179138394,
        "Mean Anomaly(deg)": 77.92513536360889,
        "RAAN(deg)": 34.97613657643625,
        "Satellite Name": "Starlink Shell 1 157",
        "Satellite Number": 157,
        "Semi-Major Axis(m)": 6931778.249405717,
        "Time(s)": 460
    },
    {
        "Altitude(m)": 559560.8581464018,
        "Argument of Periapsis(deg)": 0.016383188537028134,
        "Eccentricity": 0.0,
        "Inclination(deg)": 53.0,
        "Latitude(deg)": 51.66667792566433,
        "Longitude(deg)": 4.449984016759452,
        "Mean Anomaly(deg)": 78.55196656716561,
        "RAAN(deg)": 34.97561780635878,
        "Satellite Name": "Starlink Shell 1 157",
        "Satellite Number": 157,
        "Semi-Major Axis(m)": 6931778.249405717,
        "Time(s)": 470
    },
    {
        "Altitude(m)": 559596.4683725269,
        "Argument of Periapsis(deg)": 0.01673176701653937,
        "Eccentricity": 0.0,
        "Inclination(deg)": 53.0,
        "Latitude(deg)": 51.822302657599295,
        "Longitude(deg)": 5.386762498337143,
        "Mean Anomaly(deg)": 79.17879777072233,
        "RAAN(deg)": 34.9750990362813,
        "Satellite Name": "Starlink Shell 1 157",
        "Satellite Number": 157,
        "Semi-Major Axis(m)": 6931778.249405717,
        "Time(s)": 480
    },
    {
        "Altitude(m)": 559630.1916420815,
        "Argument of Periapsis(deg)": 0.017080345496050607,
        "Eccentricity": 0.0,
        "Inclination(deg)": 53.0,
        "Latitude(deg)": 51.96973858185578,
        "Longitude(deg)": 6.330120013367901,
        "Mean Anomaly(deg)": 79.80562897427903,
        "RAAN(deg)": 34.97458026620383,
        "Satellite Name": "Starlink Shell 1 157",
        "Satellite Number": 157,
        "Semi-Major Axis(m)": 6931778.249405717,
        "Time(s)": 490
    },
    {
        "Altitude(m)": 559662.007658004,
        "Argument of Periapsis(deg)": 0.017428923975561842,
        "Eccentricity": 0.0,
        "Inclination(deg)": 53.0,
        "Latitude(deg)": 52.10888900770606,
        "Longitude(deg)": 7.279773464868457,
        "Mean Anomaly(deg)": 80.43246017783574,
        "RAAN(deg)": 34.97406149612635,
        "Satellite Name": "Starlink Shell 1 157",
        "Satellite Number": 157,
        "Semi-Major Axis(m)": 6931778.249405717,
        "Time(s)": 500
    },
    {
        "Altitude(m)": 559691.8972852654,
        "Argument of Periapsis(deg)": 0.01777750245507308,
        "Eccentricity": 0.0,
        "Inclination(deg)": 53.0,
        "Latitude(deg)": 52.23966130462765,
        "Longitude(deg)": 8.235423576780311,
        "Mean Anomaly(deg)": 81.05929138139247,
        "RAAN(deg)": 34.97354272604888,
        "Satellite Name": "Starlink Shell 1 157",
        "Satellite Number": 157,
        "Semi-Major Axis(m)": 6931778.249405717,
        "Time(s)": 510
    },
    {
        "Altitude(m)": 559719.842560217,
        "Argument of Periapsis(deg)": 0.018126080934584315,
        "Eccentricity": 0.0,
        "Inclination(deg)": 53.0,
        "Latitude(deg)": 52.3619671809754,
        "Longitude(deg)": 9.196755800390703,
        "Mean Anomaly(deg)": 81.68612258494922,
        "RAAN(deg)": 34.973023955971414,
        "Satellite Name": "Starlink Shell 1 157",
        "Satellite Number": 157,
        "Semi-Major Axis(m)": 6931778.249405717,
        "Time(s)": 520
    },
    {
        "Altitude(m)": 559745.8266993682,
        "Argument of Periapsis(deg)": 0.018474659414095554,
        "Eccentricity": 0.0,
        "Inclination(deg)": 53.0,
        "Latitude(deg)": 52.47572295645578,
        "Longitude(deg)": 10.163441308444114,
        "Mean Anomaly(deg)": 82.31295378850592,
        "RAAN(deg)": 34.97250518589394,
        "Satellite Name": "Starlink Shell 1 157",
        "Satellite Number": 157,
        "Semi-Major Axis(m)": 6931778.249405717,
        "Time(s)": 530
    },
    {
        "Altitude(m)": 559769.8341075479,
        "Argument of Periapsis(deg)": 0.018823237893606792,
        "Eccentricity": 0.0,
        "Inclination(deg)": 53.0,
        "Latitude(deg)": 52.58084982642559,
        "Longitude(deg)": 11.135136562868436,
        "Mean Anomaly(deg)": 82.93978499206261,
        "RAAN(deg)": 34.97198641581647,
        "Satellite Name": "Starlink Shell 1 157",
        "Satellite Number": 157,
        "Semi-Major Axis(m)": 6931778.249405717,
        "Time(s)": 540
    },
    {
        "Altitude(m)": 559791.8503855389,
        "Argument of Periapsis(deg)": 0.019171816373118027,
        "Eccentricity": 0.0,
        "Inclination(deg)": 53.0,
        "Latitude(deg)": 52.677274116431285,
        "Longitude(deg)": 12.11148448308657,
        "Mean Anomaly(deg)": 83.56661619561933,
        "RAAN(deg)": 34.971467645739,
        "Satellite Name": "Starlink Shell 1 157",
        "Satellite Number": 157,
        "Semi-Major Axis(m)": 6931778.249405717,
        "Time(s)": 550
    },
    {
        "Altitude(m)": 559811.8623370768,
        "Argument of Periapsis(deg)": 0.019520394852629266,
        "Eccentricity": 0.0,
        "Inclination(deg)": 53.0,
        "Latitude(deg)": 52.764927524990014,
        "Longitude(deg)": 13.092115698947035,
        "Mean Anomaly(deg)": 84.19344739917604,
        "RAAN(deg)": 34.97094887566152,
        "Satellite Name": "Starlink Shell 1 157",
        "Satellite Number": 157,
        "Semi-Major Axis(m)": 6931778.249405717,
        "Time(s)": 560
    }
]